IRIDIUM 7 [-]           
1 24793U 97020B   23361.59124498  .00000598  00000+0  20300-3 0  9999
2 24793  86.3954  42.0843 0002438  92.7299 267.4176 14.35021514394991
IRIDIUM 5 [-]           
1 24795U 97020D   23361.91122697  .00005468  00000+0  54483-3 0  9996
2 24795  86.3934 329.4946 0123412 253.1402 105.6259 14.85801280405474
IRIDIUM 4 [-]           
1 24796U 97020E   23361.63863723  .00000611  00000+0  20409-3 0  9994
2 24796  86.3951  39.2994 0002240  96.1432 264.0020 14.35930581395304
IRIDIUM 914 [-]         
1 24836U 97030A   23361.64303810  .00000713  00000+0  22142-3 0  9996
2 24836  86.3929  49.4727 0002559 137.3644 222.7753 14.39761483529756
IRIDIUM 16 [-]          
1 24841U 97030F   23361.71370890  .00000724  00000+0  23455-3 0  9992
2 24841  86.4029  70.9853 0003615  62.5143 297.6422 14.37648015389751
IRIDIUM 911 [-]         
1 24842U 97030G   23361.69700440  .00000974  00000+0  26643-3 0  9997
2 24842  86.4454  70.2628 0016545  89.4658 270.8440 14.46211951397366
IRIDIUM 17 [-]          
1 24870U 97034B   23361.78288838  .00000834  00000+0  27627-3 0  9992
2 24870  86.3962 100.6143 0001899  41.8707 318.2635 14.36742024386396
IRIDIUM 920 [-]         
1 24871U 97034C   23361.75045046  .00000801  00000+0  24573-3 0  9993
2 24871  86.3971  81.1016 0013311  60.0830 300.1690 14.40465529389189
